satname,norad_id,inclination_deg,eccentricity,mean_motion_rev_per_day,perigee_km,apogee_km,l1,l2
STARLINK-1475,45739,53.0483,0.0006411,15.77253689,333.9198249374749,342.53154517225084,1 45739U 20038K   25305.66668981  .00195038  00000+0  11405-2 0  9994,2 45739  53.0483 314.8802 0006411  16.5910 333.7474 15.77253689  6025
STARLINK-1480,45741,53.0512,0.0001616,15.06405819,546.074590153843,548.3128570437093,1 45741U 20038M   25305.11635814  .00002775  00000+0  20510-3 0  9999,2 45741  53.0512  93.8064 0001616  73.3135 286.8031 15.06405819296829
STARLINK-1500,45744,53.0404,0.00027,15.27562664,481.24847248935475,484.9535410130011,1 45744U 20038Q   25305.61100021  .00022789  00000+0  84441-3 0  9994,2 45744  53.0404  70.2134 0002700 190.3219 169.7724 15.27562664297191
STARLINK-1504,45746,53.0282,0.0002184,15.40432214,443.3426250518005,446.32289824368763,1 45746U 20038S   25305.54362352  .00024852  00000+0  61265-3 0  9997,2 45746  53.0282  35.0273 0002184 224.5458 135.5370 15.40432214297674
STARLINK-1506,45747,53.0588,0.0002137,15.21327759,500.3643923769596,503.30489225688507,1 45747U 20038T   25305.50603404  .00009571  00000+0  43598-3 0  9990,2 45747  53.0588  73.2490 0002137 213.0045 147.0817 15.21327759297144
STARLINK-1464,45751,53.054,0.0001265,15.0638834,546.3712332761997,548.1233555026793,1 45751U 20038X   25305.64896263 -.00002368  00000+0 -14016-3 0  9999,2 45751  53.0540  71.4143 0001265  91.5565 268.5569 15.06388340297182
STARLINK-1477,45754,53.0534,9.73e-05,15.06639034,545.8052848743,547.1528151576322,1 45754U 20038AA  25305.06624344  .00018745  00000+0  12658-2 0  9990,2 45754  53.0534  74.0244 0000973  74.4357 285.6739 15.06639034297091
STARLINK-1478,45755,53.0546,0.0001932,15.06373185,545.9557500507435,548.6317364899423,1 45755U 20038AB  25305.61581798 -.00001898  00000+0 -10864-3 0  9998,2 45755  53.0546  71.5643 0001932  84.0769 276.0440 15.06373185297163
STARLINK-1484,45756,53.0172,0.0002009,15.60516086,384.80635069522214,387.52424735897057,1 45756U 20038AC  25305.35212970  .00087067  00000+0  10319-2 0  9997,2 45756  53.0172 338.0710 0002009 353.9387   6.1601 15.60516086298458
STARLINK-1493,45759,53.0556,0.0001494,15.06410464,546.1448451877859,548.2141297542421,1 45759U 20038AF  25304.74221084  .00002336  00000+0  17564-3 0  9994,2 45759  53.0556  75.4840 0001494  89.2122 270.9038 15.06410464297037
STARLINK-1494,45760,53.0547,0.0002341,15.51413036,411.00986406610264,414.1892869307503,1 45760U 20038AG  25305.50263820  .00035388  00000+0  59545-3 0  9993,2 45760  53.0547  56.8552 0002341  19.5791 340.5308 15.51413036297371
STARLINK-1502,45764,53.0543,0.000138,15.06391357,546.2823458585417,548.1937493716823,1 45764U 20038AL  25305.63791268  .00000339  00000+0  41643-4 0  9992,2 45764  53.0543  71.4619 0001380  91.6224 268.4923 15.06391357297183
STARLINK-1470,45772,53.0506,0.0003042,15.178631,510.2040283925526,514.3961703238019,1 45772U 20038AU  25305.55148591  .00043619  00000+0  21300-2 0  9991,2 45772  53.0506  44.2370 0003042 247.7195 112.3476 15.17863100297554
STARLINK-1482,45773,53.0542,0.0001272,15.06386628,546.3716319458481,548.1334510452052,1 45773U 20038AV  25305.60288890 -.00004561  00000+0 -28760-3 0  9998,2 45773  53.0542  51.6213 0001272  80.7985 279.3148 15.06386628297450
STARLINK-1485,45774,53.0344,0.00057,16.21653287,211.30872336610082,218.8249757545982,1 45774U 20038AW  25305.99693259  .02562411  11878-4  11299-2 0  9991,2 45774  53.0344 335.8646 0005700  24.6096 335.5214 16.21653287298544
STARLINK-1496,45780,53.0535,0.0001322,15.06390901,546.323910437096,548.1549799692075,1 45780U 20038BC  25305.56971438 -.00002852  00000+0 -17266-3 0  9998,2 45780  53.0535  51.7694 0001322  92.5528 267.5612 15.06390901297436
STARLINK-1497,45781,53.0407,0.0005792,15.54122878,400.774892639226,408.6321350904864,1 45781U 20038BD  25305.52693099  .00053743  00000+0  81432-3 0  9998,2 45781  53.0407 356.9718 0005792 288.2064  71.8315 15.54122878298218
STARLINK-1510,45784,53.0327,0.0002004,15.70083995,357.30667887044547,360.00678579836494,1 45784U 20038BG  25305.66668981  .00124764  00000+0  10034-2 0  9999,2 45784  53.0327 332.3676 0002004  47.3386 315.1167 15.70083995  5801
STARLINK-1513,45786,53.0582,0.0001647,15.06395093,546.0859898428998,548.3672046118272,1 45786U 20038BJ  25305.46651430 -.00000942  00000+0 -44333-4 0  9994,2 45786  53.0582  52.2366 0001647  89.8207 270.2971 15.06395093297435
STARLINK-1522,46027,53.055,0.0001394,15.06388461,546.2815250181648,548.212322056047,1 46027U 20055A   25305.51351586 -.00000077  00000+0  13694-4 0  9991,2 46027  53.0550 342.0230 0001394  95.9652 264.1496 15.06388461289560
STARLINK-1523,46028,53.0563,0.0001765,15.06384964,546.035309341788,548.4799736502364,1 46028U 20055B   25305.52826374 -.00000827  00000+0 -36606-4 0  9997,2 46028  53.0563 341.9582 0001765 101.3232 258.7955 15.06384964289586
STARLINK-1526,46029,53.056,0.0001615,15.06388301,546.1289643375176,548.3658635032134,1 46029U 20055C   25305.52088991 -.00001325  00000+0 -70098-4 0  9990,2 46029  53.0560 341.9834 0001615  83.9800 276.1373 15.06388301289570
STARLINK-1555,46032,53.0544,0.0001538,15.06387855,546.183656531065,548.3139051972594,1 46032U 20055F   25305.37345022 -.00002113  00000+0 -12304-3 0  9999,2 46032  53.0544 342.6486 0001538 100.3929 259.7233 15.06387855289550
STARLINK-1556,46033,53.0557,0.0001446,15.06384459,546.2577769854906,548.2606015634301,1 46033U 20055G   25305.48771197 -.00001592  00000+0 -88034-4 0  9992,2 46033  53.0557 342.1450 0001446  98.0173 262.0980 15.06384459289545
STARLINK-1557,46034,53.0563,0.0001454,15.06389875,546.235639586469,548.249539971177,1 46034U 20055H   25305.49139942 -.00000594  00000+0 -21018-4 0  9990,2 46034  53.0563 342.1214 0001454  79.4022 280.7131 15.06389875289548
STARLINK-1558,46035,53.0547,0.0001291,15.06389521,546.3496081050935,548.1377413953142,1 46035U 20055J   25305.49877103  .00000074  00000+0  23855-4 0  9991,2 46035  53.0547 342.0913 0001291  93.0604 267.0533 15.06389521289578
STARLINK-1560,46036,53.0556,0.0001462,15.06384685,546.2460037835826,548.270989426791,1 46036U 20055K   25305.48402864  .00000606  00000+0  59616-4 0  9994,2 46036  53.0556 342.1594 0001462  93.5211 266.5945 15.06384685289571
STARLINK-1567,46038,53.055,0.0001393,15.06383009,546.2989250873688,548.2283417038334,1 46038U 20055M   25305.42873744 -.00002579  00000+0 -15441-3 0  9999,2 46038  53.0550 342.4049 0001393  89.8822 270.2327 15.06383009289557
